STARLINK-31630          
1 59271U 24050T   26068.56880718 -.00002063  00000+0 -57526-4 0  9991
2 59271  53.1600 168.5079 0001409  92.3163 267.7999 15.30200807110710
STARLINK-33917          
1 64181U 25113M   26068.29896658  .00017941  00000+0  61657-3 0  9996
2 64181  53.1594  93.0604 0001269  95.2755 264.8391 15.30191987 45008
